[{"OBJECT_NAME":"STARLINK-30845","OBJECT_ID":"2023-170B","EPOCH":"2026-03-09T10:18:34.171488","MEAN_MOTION":15.03060829,"ECCENTRICITY":9.377e-5,"INCLINATION":43.0009,"RA_OF_ASC_NODE":197.0622,"ARG_OF_PERICENTER":266.2361,"MEAN_ANOMALY":93.8374,"EPHEMERIS_TYPE":0,"CLASSIFICATION_TYPE":"U","NORAD_CAT_ID":58207,"ELEMENT_SET_NO":999,"REV_AT_EPOCH":13024,"BSTAR":0.00033221826,"MEAN_MOTION_DOT":4.349e-5,"MEAN_MOTION_DDOT":0},{"OBJECT_NAME":"RAPIDEYE 4","OBJECT_ID":"2008-040E","EPOCH":"2026-03-09T22:51:05.848992","MEAN_MOTION":15.03765217,"ECCENTRICITY":0.00096509,"INCLINATION":97.4015,"RA_OF_ASC_NODE":97.7474,"ARG_OF_PERICENTER":35.5595,"MEAN_ANOMALY":324.6273,"EPHEMERIS_TYPE":0,"CLASSIFICATION_TYPE":"U","NORAD_CAT_ID":33316,"ELEMENT_SET_NO":999,"REV_AT_EPOCH":95086,"BSTAR":0.00022327721,"MEAN_MOTION_DOT":3.01e-5,"MEAN_MOTION_DDOT":0}]
